<?xml version='1.0' encoding='UTF-8'?>
<gpx version="1.1" creator="https://www.komoot.de" xmlns="http://www.topografix.com/GPX/1/1" xmlns:xsi="http://www.w3.org/2001/XMLSchema-instance" xsi:schemaLocation="http://www.topografix.com/GPX/1/1 http://www.topografix.com/GPX/1/1/gpx.xsd">
  <metadata>
    <name>Baligrodzka Pętla</name>
    <author>
      <link href="https://www.komoot.de">
        <text>komoot</text>
        <type>text/html</type>
      </link>
    </author>
  </metadata>
  <trk>
    <name>Baligrodzka Pętla</name>
    <trkseg>
      <trkpt lat="49.336252" lon="22.287513">
        <ele>444.472977</ele>
        <time>2026-05-27T06:40:05.747Z</time>
      </trkpt>
      <trkpt lat="49.336254" lon="22.287500">
        <ele>444.472977</ele>
        <time>2026-05-27T06:40:05.947Z</time>
      </trkpt>
      <trkpt lat="49.336231" lon="22.286935">
        <ele>444.472977</ele>
        <time>2026-05-27T06:40:14.097Z</time>
      </trkpt>
      <trkpt lat="49.336225" lon="22.286852">
        <ele>444.472977</ele>
        <time>2026-05-27T06:40:15.244Z</time>
      </trkpt>
      <trkpt lat="49.336308" lon="22.286827">
        <ele>444.472977</ele>
        <time>2026-05-27T06:40:17.025Z</time>
      </trkpt>
      <trkpt lat="49.336811" lon="22.286793">
        <ele>444.231453</ele>
        <time>2026-05-27T06:40:27.079Z</time>
      </trkpt>
      <trkpt lat="49.337083" lon="22.286781">
        <ele>443.687182</ele>
        <time>2026-05-27T06:40:32.374Z</time>
      </trkpt>
      <trkpt lat="49.337160" lon="22.286777">
        <ele>443.533081</ele>
        <time>2026-05-27T06:40:33.752Z</time>
      </trkpt>
      <trkpt lat="49.337209" lon="22.286774">
        <ele>443.434995</ele>
        <time>2026-05-27T06:40:34.641Z</time>
      </trkpt>
      <trkpt lat="49.337694" lon="22.286753">
        <ele>442.464527</ele>
        <time>2026-05-27T06:40:42.843Z</time>
      </trkpt>
      <trkpt lat="49.338206" lon="22.286731">
        <ele>441.440040</ele>
        <time>2026-05-27T06:40:51.658Z</time>
      </trkpt>
      <trkpt lat="49.338698" lon="22.286713">
        <ele>440.376826</ele>
        <time>2026-05-27T06:40:59.869Z</time>
      </trkpt>
      <trkpt lat="49.338858" lon="22.286736">
        <ele>439.995012</ele>
        <time>2026-05-27T06:41:02.547Z</time>
      </trkpt>
      <trkpt lat="49.338893" lon="22.286749">
        <ele>439.909453</ele>
        <time>2026-05-27T06:41:03.145Z</time>
      </trkpt>
      <trkpt lat="49.339130" lon="22.286898">
        <ele>439.300940</ele>
        <time>2026-05-27T06:41:07.434Z</time>
      </trkpt>
      <trkpt lat="49.339707" lon="22.287449">
        <ele>437.686307</ele>
        <time>2026-05-27T06:41:18.947Z</time>
      </trkpt>
      <trkpt lat="49.341198" lon="22.288854">
        <ele>434.371120</ele>
        <time>2026-05-27T06:41:50.205Z</time>
      </trkpt>
      <trkpt lat="49.341310" lon="22.288961">
        <ele>434.143546</ele>
        <time>2026-05-27T06:41:52.613Z</time>
      </trkpt>
      <trkpt lat="49.341670" lon="22.289299">
        <ele>433.441743</ele>
        <time>2026-05-27T06:42:00.338Z</time>
      </trkpt>
      <trkpt lat="49.342171" lon="22.289743">
        <ele>432.756106</ele>
        <time>2026-05-27T06:42:11.160Z</time>
      </trkpt>
      <trkpt lat="49.342318" lon="22.289818">
        <ele>432.572514</ele>
        <time>2026-05-27T06:42:14.111Z</time>
      </trkpt>
      <trkpt lat="49.342539" lon="22.289872">
        <ele>432.307297</ele>
        <time>2026-05-27T06:42:18.409Z</time>
      </trkpt>
      <trkpt lat="49.343205" lon="22.289949">
        <ele>431.515748</ele>
        <time>2026-05-27T06:42:31.552Z</time>
      </trkpt>
      <trkpt lat="49.343894" lon="22.289994">
        <ele>430.503615</ele>
        <time>2026-05-27T06:42:44.674Z</time>
      </trkpt>
      <trkpt lat="49.344605" lon="22.289918">
        <ele>429.412988</ele>
        <time>2026-05-27T06:42:57.455Z</time>
      </trkpt>
      <trkpt lat="49.344702" lon="22.289905">
        <ele>429.263991</ele>
        <time>2026-05-27T06:42:59.186Z</time>
      </trkpt>
      <trkpt lat="49.344765" lon="22.289897">
        <ele>429.167257</ele>
        <time>2026-05-27T06:43:00.318Z</time>
      </trkpt>
      <trkpt lat="49.344982" lon="22.289865">
        <ele>428.833668</ele>
        <time>2026-05-27T06:43:04.198Z</time>
      </trkpt>
      <trkpt lat="49.345341" lon="22.289814">
        <ele>428.373494</ele>
        <time>2026-05-27T06:43:10.660Z</time>
      </trkpt>
      <trkpt lat="49.345506" lon="22.289791">
        <ele>428.189597</ele>
        <time>2026-05-27T06:43:13.668Z</time>
      </trkpt>
      <trkpt lat="49.345614" lon="22.289776">
        <ele>428.069232</ele>
        <time>2026-05-27T06:43:15.649Z</time>
      </trkpt>
      <trkpt lat="49.348262" lon="22.289406">
        <ele>425.405536</ele>
        <time>2026-05-27T06:44:07.751Z</time>
      </trkpt>
      <trkpt lat="49.348599" lon="22.289359">
        <ele>425.101917</ele>
        <time>2026-05-27T06:44:14.295Z</time>
      </trkpt>
      <trkpt lat="49.348911" lon="22.289316">
        <ele>424.804726</ele>
        <time>2026-05-27T06:44:20.339Z</time>
      </trkpt>
      <trkpt lat="49.349085" lon="22.289292">
        <ele>424.634249</ele>
        <time>2026-05-27T06:44:23.703Z</time>
      </trkpt>
      <trkpt lat="49.349288" lon="22.289264">
        <ele>424.435360</ele>
        <time>2026-05-27T06:44:27.596Z</time>
      </trkpt>
      <trkpt lat="49.349845" lon="22.289186">
        <ele>423.889572</ele>
        <time>2026-05-27T06:44:38.566Z</time>
      </trkpt>
      <trkpt lat="49.350218" lon="22.289123">
        <ele>423.523395</ele>
        <time>2026-05-27T06:44:46.044Z</time>
      </trkpt>
      <trkpt lat="49.350537" lon="22.289021">
        <ele>423.189025</ele>
        <time>2026-05-27T06:44:52.311Z</time>
      </trkpt>
      <trkpt lat="49.350833" lon="22.288827">
        <ele>422.758915</ele>
        <time>2026-05-27T06:44:58.337Z</time>
      </trkpt>
      <trkpt lat="49.351188" lon="22.288500">
        <ele>422.205649</ele>
        <time>2026-05-27T06:45:06.168Z</time>
      </trkpt>
      <trkpt lat="49.351529" lon="22.288168">
        <ele>421.666023</ele>
        <time>2026-05-27T06:45:13.809Z</time>
      </trkpt>
      <trkpt lat="49.352206" lon="22.287511">
        <ele>420.666074</ele>
        <time>2026-05-27T06:45:28.327Z</time>
      </trkpt>
      <trkpt lat="49.352433" lon="22.287323">
        <ele>420.418258</ele>
        <time>2026-05-27T06:45:33.028Z</time>
      </trkpt>
      <trkpt lat="49.352772" lon="22.287139">
        <ele>420.072790</ele>
        <time>2026-05-27T06:45:39.972Z</time>
      </trkpt>
      <trkpt lat="49.353326" lon="22.286944">
        <ele>419.526696</ele>
        <time>2026-05-27T06:45:51.082Z</time>
      </trkpt>
      <trkpt lat="49.353882" lon="22.286741">
        <ele>419.080462</ele>
        <time>2026-05-27T06:46:02.655Z</time>
      </trkpt>
      <trkpt lat="49.354814" lon="22.286305">
        <ele>418.830039</ele>
        <time>2026-05-27T06:46:22.916Z</time>
      </trkpt>
      <trkpt lat="49.355100" lon="22.286132">
        <ele>418.751029</ele>
        <time>2026-05-27T06:46:29.314Z</time>
      </trkpt>
      <trkpt lat="49.355325" lon="22.285896">
        <ele>418.680990</ele>
        <time>2026-05-27T06:46:34.906Z</time>
      </trkpt>
      <trkpt lat="49.355483" lon="22.285620">
        <ele>418.605188</ele>
        <time>2026-05-27T06:46:39.764Z</time>
      </trkpt>
      <trkpt lat="49.355598" lon="22.285279">
        <ele>418.515573</ele>
        <time>2026-05-27T06:46:44.801Z</time>
      </trkpt>
      <trkpt lat="49.355902" lon="22.283649">
        <ele>418.119887</ele>
        <time>2026-05-27T06:47:08.081Z</time>
      </trkpt>
      <trkpt lat="49.355979" lon="22.283252">
        <ele>418.023217</ele>
        <time>2026-05-27T06:47:13.404Z</time>
      </trkpt>
      <trkpt lat="49.356100" lon="22.282889">
        <ele>417.450722</ele>
        <time>2026-05-27T06:47:18.460Z</time>
      </trkpt>
      <trkpt lat="49.356124" lon="22.282844">
        <ele>417.359322</ele>
        <time>2026-05-27T06:47:19.192Z</time>
      </trkpt>
      <trkpt lat="49.356258" lon="22.282666">
        <ele>416.931805</ele>
        <time>2026-05-27T06:47:22.424Z</time>
      </trkpt>
      <trkpt lat="49.356476" lon="22.282525">
        <ele>416.361071</ele>
        <time>2026-05-27T06:47:26.577Z</time>
      </trkpt>
      <trkpt lat="49.356792" lon="22.282445">
        <ele>415.588368</ele>
        <time>2026-05-27T06:47:31.989Z</time>
      </trkpt>
      <trkpt lat="49.357119" lon="22.282379">
        <ele>414.792632</ele>
        <time>2026-05-27T06:47:37.347Z</time>
      </trkpt>
      <trkpt lat="49.357317" lon="22.282294">
        <ele>414.296598</ele>
        <time>2026-05-27T06:47:40.627Z</time>
      </trkpt>
      <trkpt lat="49.357484" lon="22.282168">
        <ele>413.847656</ele>
        <time>2026-05-27T06:47:43.581Z</time>
      </trkpt>
      <trkpt lat="49.357695" lon="22.281942">
        <ele>413.264865</ele>
        <time>2026-05-27T06:47:47.735Z</time>
      </trkpt>
      <trkpt lat="49.358249" lon="22.281302">
        <ele>411.734751</ele>
        <time>2026-05-27T06:47:59.238Z</time>
      </trkpt>
      <trkpt lat="49.359288" lon="22.280061">
        <ele>409.552959</ele>
        <time>2026-05-27T06:48:23.439Z</time>
      </trkpt>
      <trkpt lat="49.360181" lon="22.278785">
        <ele>409.092506</ele>
        <time>2026-05-27T06:48:48.963Z</time>
      </trkpt>
      <trkpt lat="49.360534" lon="22.278218">
        <ele>409.193840</ele>
        <time>2026-05-27T06:48:59.998Z</time>
      </trkpt>
      <trkpt lat="49.361002" lon="22.276992">
        <ele>409.675766</ele>
        <time>2026-05-27T06:49:19.907Z</time>
      </trkpt>
      <trkpt lat="49.361137" lon="22.276740">
        <ele>409.786423</ele>
        <time>2026-05-27T06:49:24.596Z</time>
      </trkpt>
      <trkpt lat="49.361284" lon="22.276537">
        <ele>409.889371</ele>
        <time>2026-05-27T06:49:28.991Z</time>
      </trkpt>
      <trkpt lat="49.361325" lon="22.276492">
        <ele>409.915613</ele>
        <time>2026-05-27T06:49:30.113Z</time>
      </trkpt>
      <trkpt lat="49.361213" lon="22.276355">
        <ele>410.084538</ele>
        <time>2026-05-27T06:49:33.338Z</time>
      </trkpt>
      <trkpt lat="49.361046" lon="22.276263">
        <ele>410.464484</ele>
        <time>2026-05-27T06:49:37.376Z</time>
      </trkpt>
      <trkpt lat="49.359491" lon="22.275635">
        <ele>413.962063</ele>
        <time>2026-05-27T06:50:15.391Z</time>
      </trkpt>
      <trkpt lat="49.358193" lon="22.274427">
        <ele>419.049806</ele>
        <time>2026-05-27T06:50:52.725Z</time>
      </trkpt>
      <trkpt lat="49.357399" lon="22.273889">
        <ele>422.405087</ele>
        <time>2026-05-27T06:51:14.780Z</time>
      </trkpt>
      <trkpt lat="49.356649" lon="22.273292">
        <ele>425.833269</ele>
        <time>2026-05-27T06:51:36.635Z</time>
      </trkpt>
      <trkpt lat="49.356648" lon="22.273291">
        <ele>425.838111</ele>
        <time>2026-05-27T06:51:36.675Z</time>
      </trkpt>
      <trkpt lat="49.356455" lon="22.273207">
        <ele>426.652154</ele>
        <time>2026-05-27T06:51:41.797Z</time>
      </trkpt>
      <trkpt lat="49.356059" lon="22.273126">
        <ele>428.106321</ele>
        <time>2026-05-27T06:51:51.816Z</time>
      </trkpt>
      <trkpt lat="49.355693" lon="22.272957">
        <ele>429.428880</ele>
        <time>2026-05-27T06:52:01.211Z</time>
      </trkpt>
      <trkpt lat="49.354650" lon="22.271811">
        <ele>433.640928</ele>
        <time>2026-05-27T06:52:32.966Z</time>
      </trkpt>
      <trkpt lat="49.353930" lon="22.270988">
        <ele>435.352061</ele>
        <time>2026-05-27T06:52:54.338Z</time>
      </trkpt>
      <trkpt lat="49.353822" lon="22.270809">
        <ele>435.655019</ele>
        <time>2026-05-27T06:52:58.048Z</time>
      </trkpt>
      <trkpt lat="49.353744" lon="22.270575">
        <ele>435.981407</ele>
        <time>2026-05-27T06:53:02.021Z</time>
      </trkpt>
      <trkpt lat="49.353349" lon="22.269065">
        <ele>437.253286</ele>
        <time>2026-05-27T06:53:24.288Z</time>
      </trkpt>
      <trkpt lat="49.353072" lon="22.268141">
        <ele>437.734822</ele>
        <time>2026-05-27T06:53:38.855Z</time>
      </trkpt>
      <trkpt lat="49.352397" lon="22.266216">
        <ele>439.648016</ele>
        <time>2026-05-27T06:54:11.711Z</time>
      </trkpt>
      <trkpt lat="49.351908" lon="22.264499">
        <ele>441.934415</ele>
        <time>2026-05-27T06:54:39.896Z</time>
      </trkpt>
      <trkpt lat="49.351310" lon="22.262857">
        <ele>444.835241</ele>
        <time>2026-05-27T06:55:09.210Z</time>
      </trkpt>
      <trkpt lat="49.350886" lon="22.261654">
        <ele>446.777298</ele>
        <time>2026-05-27T06:55:30.453Z</time>
      </trkpt>
      <trkpt lat="49.350542" lon="22.260594">
        <ele>448.408884</ele>
        <time>2026-05-27T06:55:48.447Z</time>
      </trkpt>
      <trkpt lat="49.349708" lon="22.258440">
        <ele>451.146371</ele>
        <time>2026-05-27T06:56:26.180Z</time>
      </trkpt>
      <trkpt lat="49.349279" lon="22.256667">
        <ele>452.725419</ele>
        <time>2026-05-27T06:56:54.226Z</time>
      </trkpt>
      <trkpt lat="49.348839" lon="22.255371">
        <ele>453.751269</ele>
        <time>2026-05-27T06:57:15.371Z</time>
      </trkpt>
      <trkpt lat="49.348788" lon="22.254956">
        <ele>454.128301</ele>
        <time>2026-05-27T06:57:21.532Z</time>
      </trkpt>
      <trkpt lat="49.348714" lon="22.252848">
        <ele>456.464536</ele>
        <time>2026-05-27T06:57:53.608Z</time>
      </trkpt>
      <trkpt lat="49.348632" lon="22.251309">
        <ele>457.880420</ele>
        <time>2026-05-27T06:58:16.873Z</time>
      </trkpt>
      <trkpt lat="49.348571" lon="22.250795">
        <ele>458.318615</ele>
        <time>2026-05-27T06:58:24.589Z</time>
      </trkpt>
      <trkpt lat="49.347797" lon="22.248194">
        <ele>461.160448</ele>
        <time>2026-05-27T06:59:06.388Z</time>
      </trkpt>
      <trkpt lat="49.347727" lon="22.247955">
        <ele>461.448022</ele>
        <time>2026-05-27T06:59:12.128Z</time>
      </trkpt>
      <trkpt lat="49.347402" lon="22.246822">
        <ele>463.302100</ele>
        <time>2026-05-27T06:59:31.631Z</time>
      </trkpt>
      <trkpt lat="49.347395" lon="22.246605">
        <ele>463.777951</ele>
        <time>2026-05-27T06:59:35.193Z</time>
      </trkpt>
      <trkpt lat="49.347422" lon="22.246399">
        <ele>464.238169</ele>
        <time>2026-05-27T06:59:38.669Z</time>
      </trkpt>
      <trkpt lat="49.347725" lon="22.245215">
        <ele>467.024236</ele>
        <time>2026-05-27T06:59:59.840Z</time>
      </trkpt>
      <trkpt lat="49.347880" lon="22.244780">
        <ele>468.110154</ele>
        <time>2026-05-27T07:00:07.807Z</time>
      </trkpt>
      <trkpt lat="49.349360" lon="22.242253">
        <ele>472.782056</ele>
        <time>2026-05-27T07:00:58.978Z</time>
      </trkpt>
      <trkpt lat="49.349472" lon="22.242035">
        <ele>473.278083</ele>
        <time>2026-05-27T07:01:03.206Z</time>
      </trkpt>
      <trkpt lat="49.349617" lon="22.241613">
        <ele>474.130475</ele>
        <time>2026-05-27T07:01:10.580Z</time>
      </trkpt>
      <trkpt lat="49.349686" lon="22.241289">
        <ele>474.739478</ele>
        <time>2026-05-27T07:01:15.952Z</time>
      </trkpt>
      <trkpt lat="49.349802" lon="22.240426">
        <ele>476.313786</ele>
        <time>2026-05-27T07:01:30.374Z</time>
      </trkpt>
      <trkpt lat="49.350035" lon="22.239793">
        <ele>477.607730</ele>
        <time>2026-05-27T07:01:42.110Z</time>
      </trkpt>
      <trkpt lat="49.350175" lon="22.239121">
        <ele>478.860652</ele>
        <time>2026-05-27T07:01:53.101Z</time>
      </trkpt>
      <trkpt lat="49.350426" lon="22.238296">
        <ele>480.477641</ele>
        <time>2026-05-27T07:02:06.864Z</time>
      </trkpt>
      <trkpt lat="49.350536" lon="22.238028">
        <ele>481.040161</ele>
        <time>2026-05-27T07:02:11.673Z</time>
      </trkpt>
      <trkpt lat="49.350655" lon="22.237867">
        <ele>481.472576</ele>
        <time>2026-05-27T07:02:15.414Z</time>
      </trkpt>
      <trkpt lat="49.351245" lon="22.237461">
        <ele>485.435588</ele>
        <time>2026-05-27T07:02:31.623Z</time>
      </trkpt>
      <trkpt lat="49.351648" lon="22.237139">
        <ele>488.426774</ele>
        <time>2026-05-27T07:02:45.014Z</time>
      </trkpt>
      <trkpt lat="49.352403" lon="22.236795">
        <ele>493.646673</ele>
        <time>2026-05-27T07:03:11.976Z</time>
      </trkpt>
      <trkpt lat="49.353084" lon="22.236200">
        <ele>500.806085</ele>
        <time>2026-05-27T07:03:39.056Z</time>
      </trkpt>
      <trkpt lat="49.353526" lon="22.235790">
        <ele>505.524582</ele>
        <time>2026-05-27T07:03:56.057Z</time>
      </trkpt>
      <trkpt lat="49.354006" lon="22.235306">
        <ele>510.891636</ele>
        <time>2026-05-27T07:04:15.798Z</time>
      </trkpt>
      <trkpt lat="49.354477" lon="22.234663">
        <ele>517.497524</ele>
        <time>2026-05-27T07:04:38.937Z</time>
      </trkpt>
      <trkpt lat="49.354726" lon="22.234262">
        <ele>521.279698</ele>
        <time>2026-05-27T07:04:53.065Z</time>
      </trkpt>
      <trkpt lat="49.355347" lon="22.233079">
        <ele>530.768963</ele>
        <time>2026-05-27T07:05:31.184Z</time>
      </trkpt>
      <trkpt lat="49.355487" lon="22.232854">
        <ele>532.233777</ele>
        <time>2026-05-27T07:05:38.097Z</time>
      </trkpt>
      <trkpt lat="49.355574" lon="22.232725">
        <ele>533.107924</ele>
        <time>2026-05-27T07:05:42.055Z</time>
      </trkpt>
      <trkpt lat="49.356595" lon="22.231575">
        <ele>542.130980</ele>
        <time>2026-05-27T07:06:17.787Z</time>
      </trkpt>
      <trkpt lat="49.356820" lon="22.231312">
        <ele>543.593740</ele>
        <time>2026-05-27T07:06:24.995Z</time>
      </trkpt>
      <trkpt lat="49.356981" lon="22.231069">
        <ele>544.761565</ele>
        <time>2026-05-27T07:06:30.798Z</time>
      </trkpt>
      <trkpt lat="49.357272" lon="22.230460">
        <ele>547.306286</ele>
        <time>2026-05-27T07:06:43.731Z</time>
      </trkpt>
      <trkpt lat="49.357611" lon="22.229721">
        <ele>550.351574</ele>
        <time>2026-05-27T07:06:59.533Z</time>
      </trkpt>
      <trkpt lat="49.357993" lon="22.228901">
        <ele>553.861340</ele>
        <time>2026-05-27T07:07:18.553Z</time>
      </trkpt>
      <trkpt lat="49.358046" lon="22.228761">
        <ele>554.430309</ele>
        <time>2026-05-27T07:07:21.740Z</time>
      </trkpt>
      <trkpt lat="49.358090" lon="22.228536">
        <ele>555.255749</ele>
        <time>2026-05-27T07:07:26.411Z</time>
      </trkpt>
      <trkpt lat="49.358069" lon="22.228097">
        <ele>556.802403</ele>
        <time>2026-05-27T07:07:35.091Z</time>
      </trkpt>
      <trkpt lat="49.357853" lon="22.226808">
        <ele>560.538294</ele>
        <time>2026-05-27T07:07:57.910Z</time>
      </trkpt>
      <trkpt lat="49.357818" lon="22.226518">
        <ele>560.110281</ele>
        <time>2026-05-27T07:08:02.355Z</time>
      </trkpt>
      <trkpt lat="49.357814" lon="22.226373">
        <ele>559.899668</ele>
        <time>2026-05-27T07:08:04.488Z</time>
      </trkpt>
      <trkpt lat="49.357863" lon="22.226167">
        <ele>559.581409</ele>
        <time>2026-05-27T07:08:07.550Z</time>
      </trkpt>
      <trkpt lat="49.357951" lon="22.226017">
        <ele>559.288446</ele>
        <time>2026-05-27T07:08:10.137Z</time>
      </trkpt>
      <trkpt lat="49.358065" lon="22.225955">
        <ele>559.018984</ele>
        <time>2026-05-27T07:08:12.340Z</time>
      </trkpt>
      <trkpt lat="49.358353" lon="22.225952">
        <ele>558.377290</ele>
        <time>2026-05-27T07:08:17.093Z</time>
      </trkpt>
      <trkpt lat="49.358452" lon="22.225918">
        <ele>558.151263</ele>
        <time>2026-05-27T07:08:18.664Z</time>
      </trkpt>
      <trkpt lat="49.358526" lon="22.225795">
        <ele>557.908272</ele>
        <time>2026-05-27T07:08:20.318Z</time>
      </trkpt>
      <trkpt lat="49.358547" lon="22.225622">
        <ele>557.652894</ele>
        <time>2026-05-27T07:08:22.025Z</time>
      </trkpt>
      <trkpt lat="49.358510" lon="22.225478">
        <ele>557.428251</ele>
        <time>2026-05-27T07:08:23.500Z</time>
      </trkpt>
      <trkpt lat="49.358446" lon="22.225362">
        <ele>557.207637</ele>
        <time>2026-05-27T07:08:24.929Z</time>
      </trkpt>
      <trkpt lat="49.358102" lon="22.225173">
        <ele>555.178303</ele>
        <time>2026-05-27T07:08:30.120Z</time>
      </trkpt>
      <trkpt lat="49.357848" lon="22.224867">
        <ele>552.338118</ele>
        <time>2026-05-27T07:08:34.641Z</time>
      </trkpt>
      <trkpt lat="49.357650" lon="22.224477">
        <ele>549.504878</ele>
        <time>2026-05-27T07:08:39.098Z</time>
      </trkpt>
      <trkpt lat="49.357581" lon="22.224219">
        <ele>547.906838</ele>
        <time>2026-05-27T07:08:41.591Z</time>
      </trkpt>
      <trkpt lat="49.357542" lon="22.223869">
        <ele>545.872289</ele>
        <time>2026-05-27T07:08:44.750Z</time>
      </trkpt>
      <trkpt lat="49.357570" lon="22.223598">
        <ele>544.300110</ele>
        <time>2026-05-27T07:08:47.184Z</time>
      </trkpt>
      <trkpt lat="49.357634" lon="22.223366">
        <ele>542.856498</ele>
        <time>2026-05-27T07:08:49.409Z</time>
      </trkpt>
      <trkpt lat="49.357965" lon="22.222530">
        <ele>537.299106</ele>
        <time>2026-05-27T07:08:58.068Z</time>
      </trkpt>
      <trkpt lat="49.358031" lon="22.222263">
        <ele>535.683953</ele>
        <time>2026-05-27T07:09:00.621Z</time>
      </trkpt>
      <trkpt lat="49.358042" lon="22.221932">
        <ele>533.809498</ele>
        <time>2026-05-27T07:09:03.594Z</time>
      </trkpt>
      <trkpt lat="49.358015" lon="22.221556">
        <ele>531.670088</ele>
        <time>2026-05-27T07:09:07.011Z</time>
      </trkpt>
      <trkpt lat="49.358030" lon="22.221270">
        <ele>530.047335</ele>
        <time>2026-05-27T07:09:09.622Z</time>
      </trkpt>
      <trkpt lat="49.358099" lon="22.220815">
        <ele>527.405187</ele>
        <time>2026-05-27T07:09:13.902Z</time>
      </trkpt>
      <trkpt lat="49.358079" lon="22.220464">
        <ele>525.412474</ele>
        <time>2026-05-27T07:09:17.153Z</time>
      </trkpt>
      <trkpt lat="49.357770" lon="22.219227">
        <ele>519.850762</ele>
        <time>2026-05-27T07:09:29.475Z</time>
      </trkpt>
      <trkpt lat="49.357494" lon="22.218119">
        <ele>514.881786</ele>
        <time>2026-05-27T07:09:40.740Z</time>
      </trkpt>
      <trkpt lat="49.357480" lon="22.217850">
        <ele>513.769745</ele>
        <time>2026-05-27T07:09:43.352Z</time>
      </trkpt>
      <trkpt lat="49.357528" lon="22.217621">
        <ele>513.157687</ele>
        <time>2026-05-27T07:09:45.709Z</time>
      </trkpt>
      <trkpt lat="49.358714" lon="22.213732">
        <ele>503.599562</ele>
        <time>2026-05-27T07:10:30.524Z</time>
      </trkpt>
      <trkpt lat="49.358754" lon="22.213444">
        <ele>503.075983</ele>
        <time>2026-05-27T07:10:33.907Z</time>
      </trkpt>
      <trkpt lat="49.358757" lon="22.213230">
        <ele>502.695401</ele>
        <time>2026-05-27T07:10:36.405Z</time>
      </trkpt>
      <trkpt lat="49.358632" lon="22.212600">
        <ele>501.788620</ele>
        <time>2026-05-27T07:10:44.441Z</time>
      </trkpt>
      <trkpt lat="49.358632" lon="22.212422">
        <ele>501.719641</ele>
        <time>2026-05-27T07:10:46.699Z</time>
      </trkpt>
      <trkpt lat="49.358741" lon="22.211892">
        <ele>501.504258</ele>
        <time>2026-05-27T07:10:53.969Z</time>
      </trkpt>
      <trkpt lat="49.358981" lon="22.211020">
        <ele>501.137407</ele>
        <time>2026-05-27T07:11:06.943Z</time>
      </trkpt>
      <trkpt lat="49.359004" lon="22.210797">
        <ele>501.049913</ele>
        <time>2026-05-27T07:11:09.992Z</time>
      </trkpt>
      <trkpt lat="49.359036" lon="22.209151">
        <ele>499.535625</ele>
        <time>2026-05-27T07:11:31.479Z</time>
      </trkpt>
      <trkpt lat="49.359140" lon="22.207370">
        <ele>497.234520</ele>
        <time>2026-05-27T07:11:51.329Z</time>
      </trkpt>
      <trkpt lat="49.359128" lon="22.207194">
        <ele>496.746625</ele>
        <time>2026-05-27T07:11:53.164Z</time>
      </trkpt>
      <trkpt lat="49.359085" lon="22.206999">
        <ele>496.179019</ele>
        <time>2026-05-27T07:11:55.282Z</time>
      </trkpt>
      <trkpt lat="49.358948" lon="22.206685">
        <ele>495.137005</ele>
        <time>2026-05-27T07:11:59.113Z</time>
      </trkpt>
      <trkpt lat="49.358418" lon="22.205716">
        <ele>491.648310</ele>
        <time>2026-05-27T07:12:11.448Z</time>
      </trkpt>
      <trkpt lat="49.357895" lon="22.204387">
        <ele>489.452054</ele>
        <time>2026-05-27T07:12:27.429Z</time>
      </trkpt>
      <trkpt lat="49.357826" lon="22.204051">
        <ele>489.370620</ele>
        <time>2026-05-27T07:12:31.715Z</time>
      </trkpt>
      <trkpt lat="49.357805" lon="22.203865">
        <ele>489.326985</ele>
        <time>2026-05-27T07:12:35.964Z</time>
      </trkpt>
      <trkpt lat="49.357789" lon="22.203542">
        <ele>489.252109</ele>
        <time>2026-05-27T07:12:40.517Z</time>
      </trkpt>
      <trkpt lat="49.357799" lon="22.202510">
        <ele>489.013540</ele>
        <time>2026-05-27T07:12:56.449Z</time>
      </trkpt>
      <trkpt lat="49.357123" lon="22.202302">
        <ele>490.922173</ele>
        <time>2026-05-27T07:13:13.443Z</time>
      </trkpt>
      <trkpt lat="49.356863" lon="22.202231">
        <ele>491.684798</ele>
        <time>2026-05-27T07:13:19.844Z</time>
      </trkpt>
      <trkpt lat="49.356124" lon="22.202036">
        <ele>493.850208</ele>
        <time>2026-05-27T07:13:37.884Z</time>
      </trkpt>
      <trkpt lat="49.355272" lon="22.201841">
        <ele>495.969855</ele>
        <time>2026-05-27T07:13:58.501Z</time>
      </trkpt>
      <trkpt lat="49.354430" lon="22.201641">
        <ele>498.007076</ele>
        <time>2026-05-27T07:14:18.752Z</time>
      </trkpt>
      <trkpt lat="49.353873" lon="22.201502">
        <ele>498.987851</ele>
        <time>2026-05-27T07:14:31.800Z</time>
      </trkpt>
      <trkpt lat="49.353752" lon="22.201473">
        <ele>499.154754</ele>
        <time>2026-05-27T07:14:34.613Z</time>
      </trkpt>
      <trkpt lat="49.353374" lon="22.201390">
        <ele>499.675157</ele>
        <time>2026-05-27T07:14:43.301Z</time>
      </trkpt>
      <trkpt lat="49.350810" lon="22.200907">
        <ele>502.991045</ele>
        <time>2026-05-27T07:15:41.692Z</time>
      </trkpt>
      <trkpt lat="49.349430" lon="22.200693">
        <ele>506.379297</ele>
        <time>2026-05-27T07:16:13.895Z</time>
      </trkpt>
      <trkpt lat="49.348618" lon="22.200591">
        <ele>509.153996</ele>
        <time>2026-05-27T07:16:35.136Z</time>
      </trkpt>
      <trkpt lat="49.348052" lon="22.200570">
        <ele>512.114489</ele>
        <time>2026-05-27T07:16:51.094Z</time>
      </trkpt>
      <trkpt lat="49.346426" lon="22.200688">
        <ele>519.600760</ele>
        <time>2026-05-27T07:17:37.055Z</time>
      </trkpt>
      <trkpt lat="49.345861" lon="22.200793">
        <ele>521.674706</ele>
        <time>2026-05-27T07:17:51.371Z</time>
      </trkpt>
      <trkpt lat="49.345477" lon="22.200997">
        <ele>523.155478</ele>
        <time>2026-05-27T07:18:01.197Z</time>
      </trkpt>
      <trkpt lat="49.344180" lon="22.201911">
        <ele>525.707871</ele>
        <time>2026-05-27T07:18:34.780Z</time>
      </trkpt>
      <trkpt lat="49.343712" lon="22.202303">
        <ele>526.522152</ele>
        <time>2026-05-27T07:18:47.563Z</time>
      </trkpt>
      <trkpt lat="49.343268" lon="22.202769">
        <ele>526.464814</ele>
        <time>2026-05-27T07:19:00.147Z</time>
      </trkpt>
      <trkpt lat="49.342960" lon="22.203092">
        <ele>526.408297</ele>
        <time>2026-05-27T07:19:08.546Z</time>
      </trkpt>
      <trkpt lat="49.342019" lon="22.204024">
        <ele>526.077324</ele>
        <time>2026-05-27T07:19:30.784Z</time>
      </trkpt>
      <trkpt lat="49.341730" lon="22.204210">
        <ele>525.797755</ele>
        <time>2026-05-27T07:19:36.485Z</time>
      </trkpt>
      <trkpt lat="49.341483" lon="22.204209">
        <ele>525.577404</ele>
        <time>2026-05-27T07:19:41.137Z</time>
      </trkpt>
      <trkpt lat="49.340649" lon="22.204010">
        <ele>524.824448</ele>
        <time>2026-05-27T07:19:58.509Z</time>
      </trkpt>
      <trkpt lat="49.339358" lon="22.203720">
        <ele>525.784907</ele>
        <time>2026-05-27T07:20:28.478Z</time>
      </trkpt>
      <trkpt lat="49.338994" lon="22.203637">
        <ele>526.149500</ele>
        <time>2026-05-27T07:20:37.162Z</time>
      </trkpt>
      <trkpt lat="49.338237" lon="22.203463">
        <ele>527.912260</ele>
        <time>2026-05-27T07:20:55.481Z</time>
      </trkpt>
      <trkpt lat="49.337902" lon="22.203318">
        <ele>529.012018</ele>
        <time>2026-05-27T07:21:03.966Z</time>
      </trkpt>
      <trkpt lat="49.337716" lon="22.203195">
        <ele>529.651941</ele>
        <time>2026-05-27T07:21:08.966Z</time>
      </trkpt>
      <trkpt lat="49.337121" lon="22.202485">
        <ele>532.033323</ele>
        <time>2026-05-27T07:21:28.585Z</time>
      </trkpt>
      <trkpt lat="49.336999" lon="22.202334">
        <ele>532.693980</ele>
        <time>2026-05-27T07:21:32.857Z</time>
      </trkpt>
      <trkpt lat="49.336498" lon="22.201723">
        <ele>535.559598</ele>
        <time>2026-05-27T07:21:50.518Z</time>
      </trkpt>
      <trkpt lat="49.336145" lon="22.201447">
        <ele>537.333667</ele>
        <time>2026-05-27T07:22:01.371Z</time>
      </trkpt>
      <trkpt lat="49.335855" lon="22.201368">
        <ele>538.652590</ele>
        <time>2026-05-27T07:22:09.239Z</time>
      </trkpt>
      <trkpt lat="49.335297" lon="22.201362">
        <ele>540.775052</ele>
        <time>2026-05-27T07:22:23.409Z</time>
      </trkpt>
      <trkpt lat="49.334800" lon="22.201250">
        <ele>542.147260</ele>
        <time>2026-05-27T07:22:35.632Z</time>
      </trkpt>
      <trkpt lat="49.334528" lon="22.201150">
        <ele>542.911304</ele>
        <time>2026-05-27T07:22:42.366Z</time>
      </trkpt>
      <trkpt lat="49.334420" lon="22.201110">
        <ele>543.214797</ele>
        <time>2026-05-27T07:22:45.056Z</time>
      </trkpt>
      <trkpt lat="49.334072" lon="22.200880">
        <ele>544.249842</ele>
        <time>2026-05-27T07:22:54.198Z</time>
      </trkpt>
      <trkpt lat="49.333081" lon="22.199842">
        <ele>548.773169</ele>
        <time>2026-05-27T07:23:24.012Z</time>
      </trkpt>
      <trkpt lat="49.332931" lon="22.199693">
        <ele>549.511740</ele>
        <time>2026-05-27T07:23:28.747Z</time>
      </trkpt>
      <trkpt lat="49.332218" lon="22.198934">
        <ele>553.170969</ele>
        <time>2026-05-27T07:23:53.035Z</time>
      </trkpt>
      <trkpt lat="49.331549" lon="22.197875">
        <ele>557.653666</ele>
        <time>2026-05-27T07:24:20.509Z</time>
      </trkpt>
      <trkpt lat="49.331298" lon="22.197577">
        <ele>559.133762</ele>
        <time>2026-05-27T07:24:28.756Z</time>
      </trkpt>
      <trkpt lat="49.330869" lon="22.197215">
        <ele>561.175847</ele>
        <time>2026-05-27T07:24:40.873Z</time>
      </trkpt>
      <trkpt lat="49.330615" lon="22.196933">
        <ele>561.924403</ele>
        <time>2026-05-27T07:24:48.418Z</time>
      </trkpt>
      <trkpt lat="49.330198" lon="22.196322">
        <ele>563.301065</ele>
        <time>2026-05-27T07:25:02.048Z</time>
      </trkpt>
      <trkpt lat="49.329302" lon="22.195407">
        <ele>566.181762</ele>
        <time>2026-05-27T07:25:28.404Z</time>
      </trkpt>
      <trkpt lat="49.328367" lon="22.194720">
        <ele>569.834392</ele>
        <time>2026-05-27T07:25:54.888Z</time>
      </trkpt>
      <trkpt lat="49.327950" lon="22.194439">
        <ele>571.439107</ele>
        <time>2026-05-27T07:26:06.605Z</time>
      </trkpt>
      <trkpt lat="49.327890" lon="22.194417">
        <ele>571.684249</ele>
        <time>2026-05-27T07:26:08.190Z</time>
      </trkpt>
      <trkpt lat="49.327805" lon="22.194401">
        <ele>572.068347</ele>
        <time>2026-05-27T07:26:10.393Z</time>
      </trkpt>
      <trkpt lat="49.327143" lon="22.194350">
        <ele>575.041269</ele>
        <time>2026-05-27T07:26:27.416Z</time>
      </trkpt>
      <trkpt lat="49.324651" lon="22.193860">
        <ele>587.756078</ele>
        <time>2026-05-27T07:27:35.991Z</time>
      </trkpt>
      <trkpt lat="49.324549" lon="22.193838">
        <ele>588.317976</ele>
        <time>2026-05-27T07:27:39.011Z</time>
      </trkpt>
      <trkpt lat="49.324315" lon="22.193766">
        <ele>589.701582</ele>
        <time>2026-05-27T07:27:46.204Z</time>
      </trkpt>
      <trkpt lat="49.324045" lon="22.193731">
        <ele>591.828445</ele>
        <time>2026-05-27T07:27:54.537Z</time>
      </trkpt>
      <trkpt lat="49.323470" lon="22.193794">
        <ele>596.353288</ele>
        <time>2026-05-27T07:28:13.071Z</time>
      </trkpt>
      <trkpt lat="49.323268" lon="22.193722">
        <ele>597.981073</ele>
        <time>2026-05-27T07:28:20.158Z</time>
      </trkpt>
      <trkpt lat="49.322837" lon="22.193403">
        <ele>601.737213</ele>
        <time>2026-05-27T07:28:36.035Z</time>
      </trkpt>
      <trkpt lat="49.322473" lon="22.193230">
        <ele>605.187390</ele>
        <time>2026-05-27T07:28:48.464Z</time>
      </trkpt>
      <trkpt lat="49.322297" lon="22.193330">
        <ele>607.235434</ele>
        <time>2026-05-27T07:28:54.735Z</time>
      </trkpt>
      <trkpt lat="49.322249" lon="22.193404">
        <ele>607.977991</ele>
        <time>2026-05-27T07:28:57.075Z</time>
      </trkpt>
      <trkpt lat="49.322206" lon="22.193506">
        <ele>608.842004</ele>
        <time>2026-05-27T07:28:59.812Z</time>
      </trkpt>
      <trkpt lat="49.321985" lon="22.193897">
        <ele>612.523076</ele>
        <time>2026-05-27T07:29:12.012Z</time>
      </trkpt>
      <trkpt lat="49.321862" lon="22.193986">
        <ele>614.007082</ele>
        <time>2026-05-27T07:29:17.158Z</time>
      </trkpt>
      <trkpt lat="49.321770" lon="22.194010">
        <ele>615.025425</ele>
        <time>2026-05-27T07:29:20.770Z</time>
      </trkpt>
      <trkpt lat="49.321648" lon="22.193989">
        <ele>616.365081</ele>
        <time>2026-05-27T07:29:25.568Z</time>
      </trkpt>
      <trkpt lat="49.321522" lon="22.193898">
        <ele>617.884767</ele>
        <time>2026-05-27T07:29:31.124Z</time>
      </trkpt>
      <trkpt lat="49.320108" lon="22.192201">
        <ele>639.920545</ele>
        <time>2026-05-27T07:30:52.297Z</time>
      </trkpt>
      <trkpt lat="49.319994" lon="22.192118">
        <ele>641.533070</ele>
        <time>2026-05-27T07:30:57.659Z</time>
      </trkpt>
      <trkpt lat="49.319828" lon="22.192071">
        <ele>643.690191</ele>
        <time>2026-05-27T07:31:04.566Z</time>
      </trkpt>
      <trkpt lat="49.319679" lon="22.192168">
        <ele>645.758589</ele>
        <time>2026-05-27T07:31:10.884Z</time>
      </trkpt>
      <trkpt lat="49.319140" lon="22.193088">
        <ele>651.142835</ele>
        <time>2026-05-27T07:31:37.661Z</time>
      </trkpt>
      <trkpt lat="49.318947" lon="22.193372">
        <ele>652.861808</ele>
        <time>2026-05-27T07:31:44.937Z</time>
      </trkpt>
      <trkpt lat="49.318832" lon="22.193492">
        <ele>653.755781</ele>
        <time>2026-05-27T07:31:48.521Z</time>
      </trkpt>
      <trkpt lat="49.318439" lon="22.193713">
        <ele>656.446231</ele>
        <time>2026-05-27T07:31:59.118Z</time>
      </trkpt>
      <trkpt lat="49.318352" lon="22.193820">
        <ele>657.162965</ele>
        <time>2026-05-27T07:32:01.953Z</time>
      </trkpt>
      <trkpt lat="49.318232" lon="22.194053">
        <ele>658.381251</ele>
        <time>2026-05-27T07:32:06.934Z</time>
      </trkpt>
      <trkpt lat="49.318150" lon="22.194772">
        <ele>661.323423</ele>
        <time>2026-05-27T07:32:19.645Z</time>
      </trkpt>
      <trkpt lat="49.318078" lon="22.195004">
        <ele>662.359145</ele>
        <time>2026-05-27T07:32:24.351Z</time>
      </trkpt>
      <trkpt lat="49.318021" lon="22.195084">
        <ele>662.836863</ele>
        <time>2026-05-27T07:32:26.592Z</time>
      </trkpt>
      <trkpt lat="49.317899" lon="22.195151">
        <ele>663.638142</ele>
        <time>2026-05-27T07:32:30.359Z</time>
      </trkpt>
      <trkpt lat="49.317794" lon="22.195163">
        <ele>664.289216</ele>
        <time>2026-05-27T07:32:33.493Z</time>
      </trkpt>
      <trkpt lat="49.317413" lon="22.195141">
        <ele>666.646824</ele>
        <time>2026-05-27T07:32:45.275Z</time>
      </trkpt>
      <trkpt lat="49.317316" lon="22.195163">
        <ele>667.253150</ele>
        <time>2026-05-27T07:32:48.401Z</time>
      </trkpt>
      <trkpt lat="49.317169" lon="22.195239">
        <ele>668.212370</ele>
        <time>2026-05-27T07:32:53.468Z</time>
      </trkpt>
      <trkpt lat="49.316949" lon="22.195455">
        <ele>670.306056</ele>
        <time>2026-05-27T07:33:02.348Z</time>
      </trkpt>
      <trkpt lat="49.316524" lon="22.195607">
        <ele>674.321648</ele>
        <time>2026-05-27T07:33:17.089Z</time>
      </trkpt>
      <trkpt lat="49.316266" lon="22.195630">
        <ele>676.699687</ele>
        <time>2026-05-27T07:33:26.411Z</time>
      </trkpt>
      <trkpt lat="49.315874" lon="22.195444">
        <ele>680.475357</ele>
        <time>2026-05-27T07:33:42.411Z</time>
      </trkpt>
      <trkpt lat="49.315764" lon="22.195446">
        <ele>681.487613</ele>
        <time>2026-05-27T07:33:46.579Z</time>
      </trkpt>
      <trkpt lat="49.315709" lon="22.195468">
        <ele>682.010628</ele>
        <time>2026-05-27T07:33:48.516Z</time>
      </trkpt>
      <trkpt lat="49.315456" lon="22.195619">
        <ele>684.508653</ele>
        <time>2026-05-27T07:33:57.852Z</time>
      </trkpt>
      <trkpt lat="49.315346" lon="22.195641">
        <ele>685.488264</ele>
        <time>2026-05-27T07:34:01.566Z</time>
      </trkpt>
      <trkpt lat="49.315040" lon="22.195611">
        <ele>687.428821</ele>
        <time>2026-05-27T07:34:11.577Z</time>
      </trkpt>
      <trkpt lat="49.314947" lon="22.195645">
        <ele>688.033883</ele>
        <time>2026-05-27T07:34:14.522Z</time>
      </trkpt>
      <trkpt lat="49.314883" lon="22.195691">
        <ele>688.481182</ele>
        <time>2026-05-27T07:34:16.776Z</time>
      </trkpt>
      <trkpt lat="49.314410" lon="22.195973">
        <ele>691.692842</ele>
        <time>2026-05-27T07:34:31.977Z</time>
      </trkpt>
      <trkpt lat="49.314079" lon="22.196079">
        <ele>693.832831</ele>
        <time>2026-05-27T07:34:41.304Z</time>
      </trkpt>
      <trkpt lat="49.313781" lon="22.196256">
        <ele>695.855255</ele>
        <time>2026-05-27T07:34:49.340Z</time>
      </trkpt>
      <trkpt lat="49.313707" lon="22.196336">
        <ele>696.428209</ele>
        <time>2026-05-27T07:34:51.633Z</time>
      </trkpt>
      <trkpt lat="49.313645" lon="22.196469">
        <ele>697.105708</ele>
        <time>2026-05-27T07:34:54.421Z</time>
      </trkpt>
      <trkpt lat="49.313634" lon="22.196562">
        <ele>697.499194</ele>
        <time>2026-05-27T07:34:56.051Z</time>
      </trkpt>
      <trkpt lat="49.313648" lon="22.196959">
        <ele>699.154348</ele>
        <time>2026-05-27T07:35:03.480Z</time>
      </trkpt>
      <trkpt lat="49.313634" lon="22.197036">
        <ele>699.487137</ele>
        <time>2026-05-27T07:35:05.056Z</time>
      </trkpt>
      <trkpt lat="49.313563" lon="22.197125">
        <ele>700.072670</ele>
        <time>2026-05-27T07:35:07.834Z</time>
      </trkpt>
      <trkpt lat="49.313465" lon="22.197142">
        <ele>700.702475</ele>
        <time>2026-05-27T07:35:10.866Z</time>
      </trkpt>
      <trkpt lat="49.312919" lon="22.196951">
        <ele>704.278683</ele>
        <time>2026-05-27T07:35:28.667Z</time>
      </trkpt>
      <trkpt lat="49.312752" lon="22.196975">
        <ele>705.349795</ele>
        <time>2026-05-27T07:35:34.128Z</time>
      </trkpt>
      <trkpt lat="49.312576" lon="22.197172">
        <ele>706.741130</ele>
        <time>2026-05-27T07:35:41.206Z</time>
      </trkpt>
      <trkpt lat="49.312252" lon="22.197676">
        <ele>708.185168</ele>
        <time>2026-05-27T07:35:55.194Z</time>
      </trkpt>
      <trkpt lat="49.311635" lon="22.198305">
        <ele>707.913552</ele>
        <time>2026-05-27T07:36:13.081Z</time>
      </trkpt>
      <trkpt lat="49.311543" lon="22.198502">
        <ele>707.855630</ele>
        <time>2026-05-27T07:36:15.932Z</time>
      </trkpt>
      <trkpt lat="49.311539" lon="22.198653">
        <ele>707.819508</ele>
        <time>2026-05-27T07:36:17.595Z</time>
      </trkpt>
      <trkpt lat="49.311773" lon="22.199835">
        <ele>706.120413</ele>
        <time>2026-05-27T07:36:29.963Z</time>
      </trkpt>
      <trkpt lat="49.311880" lon="22.200084">
        <ele>704.844605</ele>
        <time>2026-05-27T07:36:34.812Z</time>
      </trkpt>
      <trkpt lat="49.312530" lon="22.201344">
        <ele>697.970940</ele>
        <time>2026-05-27T07:37:01.666Z</time>
      </trkpt>
      <trkpt lat="49.312940" lon="22.202455">
        <ele>693.284992</ele>
        <time>2026-05-27T07:37:25.060Z</time>
      </trkpt>
      <trkpt lat="49.313057" lon="22.202808">
        <ele>691.989603</ele>
        <time>2026-05-27T07:37:32.537Z</time>
      </trkpt>
      <trkpt lat="49.313114" lon="22.203066">
        <ele>691.098498</ele>
        <time>2026-05-27T07:37:37.657Z</time>
      </trkpt>
      <trkpt lat="49.313181" lon="22.203724">
        <ele>688.919980</ele>
        <time>2026-05-27T07:37:49.754Z</time>
      </trkpt>
      <trkpt lat="49.313287" lon="22.204373">
        <ele>686.721239</ele>
        <time>2026-05-27T07:38:01.380Z</time>
      </trkpt>
      <trkpt lat="49.313275" lon="22.205025">
        <ele>684.139042</ele>
        <time>2026-05-27T07:38:12.363Z</time>
      </trkpt>
      <trkpt lat="49.313429" lon="22.206263">
        <ele>679.149572</ele>
        <time>2026-05-27T07:38:33.547Z</time>
      </trkpt>
      <trkpt lat="49.313460" lon="22.206515">
        <ele>678.134339</ele>
        <time>2026-05-27T07:38:37.993Z</time>
      </trkpt>
      <trkpt lat="49.313509" lon="22.207057">
        <ele>675.968119</ele>
        <time>2026-05-27T07:38:47.861Z</time>
      </trkpt>
      <trkpt lat="49.313564" lon="22.208221">
        <ele>672.701006</ele>
        <time>2026-05-27T07:39:11.032Z</time>
      </trkpt>
      <trkpt lat="49.313526" lon="22.208602">
        <ele>671.632987</ele>
        <time>2026-05-27T07:39:18.817Z</time>
      </trkpt>
      <trkpt lat="49.313438" lon="22.208946">
        <ele>670.609015</ele>
        <time>2026-05-27T07:39:25.985Z</time>
      </trkpt>
      <trkpt lat="49.313400" lon="22.209261">
        <ele>669.721342</ele>
        <time>2026-05-27T07:39:29.395Z</time>
      </trkpt>
      <trkpt lat="49.313431" lon="22.209584">
        <ele>668.816673</ele>
        <time>2026-05-27T07:39:32.719Z</time>
      </trkpt>
      <trkpt lat="49.313762" lon="22.210153">
        <ele>664.650363</ele>
        <time>2026-05-27T07:39:40.091Z</time>
      </trkpt>
      <trkpt lat="49.313878" lon="22.210449">
        <ele>662.390980</ele>
        <time>2026-05-27T07:39:43.307Z</time>
      </trkpt>
      <trkpt lat="49.314067" lon="22.210706">
        <ele>659.856436</ele>
        <time>2026-05-27T07:39:46.847Z</time>
      </trkpt>
      <trkpt lat="49.314551" lon="22.211059">
        <ele>654.478431</ele>
        <time>2026-05-27T07:39:54.328Z</time>
      </trkpt>
      <trkpt lat="49.314723" lon="22.211238">
        <ele>652.392668</ele>
        <time>2026-05-27T07:39:57.234Z</time>
      </trkpt>
      <trkpt lat="49.315001" lon="22.211675">
        <ele>648.313182</ele>
        <time>2026-05-27T07:40:02.815Z</time>
      </trkpt>
      <trkpt lat="49.315201" lon="22.212056">
        <ele>644.958849</ele>
        <time>2026-05-27T07:40:07.310Z</time>
      </trkpt>
      <trkpt lat="49.315423" lon="22.212669">
        <ele>640.150296</ele>
        <time>2026-05-27T07:40:13.798Z</time>
      </trkpt>
      <trkpt lat="49.315583" lon="22.213162">
        <ele>636.373935</ele>
        <time>2026-05-27T07:40:18.911Z</time>
      </trkpt>
      <trkpt lat="49.315711" lon="22.213666">
        <ele>632.664920</ele>
        <time>2026-05-27T07:40:23.921Z</time>
      </trkpt>
      <trkpt lat="49.315829" lon="22.214015">
        <ele>630.135513</ele>
        <time>2026-05-27T07:40:27.553Z</time>
      </trkpt>
      <trkpt lat="49.315913" lon="22.214177">
        <ele>628.901569</ele>
        <time>2026-05-27T07:40:29.453Z</time>
      </trkpt>
      <trkpt lat="49.316023" lon="22.214336">
        <ele>627.519478</ele>
        <time>2026-05-27T07:40:31.594Z</time>
      </trkpt>
      <trkpt lat="49.316281" lon="22.214593">
        <ele>624.706441</ele>
        <time>2026-05-27T07:40:35.938Z</time>
      </trkpt>
      <trkpt lat="49.317123" lon="22.215286">
        <ele>615.968630</ele>
        <time>2026-05-27T07:40:49.743Z</time>
      </trkpt>
      <trkpt lat="49.317963" lon="22.216688">
        <ele>608.229762</ele>
        <time>2026-05-27T07:41:08.624Z</time>
      </trkpt>
      <trkpt lat="49.318019" lon="22.216802">
        <ele>607.680856</ele>
        <time>2026-05-27T07:41:10.093Z</time>
      </trkpt>
      <trkpt lat="49.318034" lon="22.216886">
        <ele>607.345946</ele>
        <time>2026-05-27T07:41:10.998Z</time>
      </trkpt>
      <trkpt lat="49.318013" lon="22.217063">
        <ele>606.654137</ele>
        <time>2026-05-27T07:41:12.864Z</time>
      </trkpt>
      <trkpt lat="49.317949" lon="22.217186">
        <ele>606.048956</ele>
        <time>2026-05-27T07:41:14.503Z</time>
      </trkpt>
      <trkpt lat="49.317403" lon="22.217669">
        <ele>603.172281</ele>
        <time>2026-05-27T07:41:24.728Z</time>
      </trkpt>
      <trkpt lat="49.317261" lon="22.217838">
        <ele>602.593124</ele>
        <time>2026-05-27T07:41:27.732Z</time>
      </trkpt>
      <trkpt lat="49.317213" lon="22.217952">
        <ele>602.308039</ele>
        <time>2026-05-27T07:41:29.211Z</time>
      </trkpt>
      <trkpt lat="49.317192" lon="22.218083">
        <ele>602.024655</ele>
        <time>2026-05-27T07:41:30.692Z</time>
      </trkpt>
      <trkpt lat="49.317203" lon="22.218270">
        <ele>601.630238</ele>
        <time>2026-05-27T07:41:32.771Z</time>
      </trkpt>
      <trkpt lat="49.317780" lon="22.220447">
        <ele>596.406247</ele>
        <time>2026-05-27T07:41:59.949Z</time>
      </trkpt>
      <trkpt lat="49.318217" lon="22.221438">
        <ele>593.467013</ele>
        <time>2026-05-27T07:42:12.927Z</time>
      </trkpt>
      <trkpt lat="49.318416" lon="22.222072">
        <ele>591.738371</ele>
        <time>2026-05-27T07:42:20.228Z</time>
      </trkpt>
      <trkpt lat="49.319041" lon="22.223827">
        <ele>585.481224</ele>
        <time>2026-05-27T07:42:40.785Z</time>
      </trkpt>
      <trkpt lat="49.319132" lon="22.224241">
        <ele>584.106399</ele>
        <time>2026-05-27T07:42:45.336Z</time>
      </trkpt>
      <trkpt lat="49.319154" lon="22.224732">
        <ele>582.619173</ele>
        <time>2026-05-27T07:42:50.554Z</time>
      </trkpt>
      <trkpt lat="49.319139" lon="22.225130">
        <ele>581.573003</ele>
        <time>2026-05-27T07:42:54.835Z</time>
      </trkpt>
      <trkpt lat="49.319112" lon="22.225813">
        <ele>579.777391</ele>
        <time>2026-05-27T07:43:02.292Z</time>
      </trkpt>
      <trkpt lat="49.319072" lon="22.226282">
        <ele>578.536157</ele>
        <time>2026-05-27T07:43:07.436Z</time>
      </trkpt>
      <trkpt lat="49.318928" lon="22.227226">
        <ele>575.991992</ele>
        <time>2026-05-27T07:43:17.732Z</time>
      </trkpt>
      <trkpt lat="49.318662" lon="22.228662">
        <ele>571.666482</ele>
        <time>2026-05-27T07:43:33.660Z</time>
      </trkpt>
      <trkpt lat="49.318576" lon="22.228979">
        <ele>570.663683</ele>
        <time>2026-05-27T07:43:37.287Z</time>
      </trkpt>
      <trkpt lat="49.318458" lon="22.229298">
        <ele>569.592467</ele>
        <time>2026-05-27T07:43:41.135Z</time>
      </trkpt>
      <trkpt lat="49.318132" lon="22.230051">
        <ele>566.821522</ele>
        <time>2026-05-27T07:43:50.497Z</time>
      </trkpt>
      <trkpt lat="49.317651" lon="22.231162">
        <ele>562.171845</ele>
        <time>2026-05-27T07:44:04.066Z</time>
      </trkpt>
      <trkpt lat="49.317526" lon="22.231355">
        <ele>561.223347</ele>
        <time>2026-05-27T07:44:06.803Z</time>
      </trkpt>
      <trkpt lat="49.317342" lon="22.231559">
        <ele>560.009187</ele>
        <time>2026-05-27T07:44:10.291Z</time>
      </trkpt>
      <trkpt lat="49.317197" lon="22.231652">
        <ele>559.168654</ele>
        <time>2026-05-27T07:44:12.736Z</time>
      </trkpt>
      <trkpt lat="49.317011" lon="22.231696">
        <ele>558.162139</ele>
        <time>2026-05-27T07:44:15.682Z</time>
      </trkpt>
      <trkpt lat="49.315488" lon="22.231686">
        <ele>551.210830</ele>
        <time>2026-05-27T07:44:40.202Z</time>
      </trkpt>
      <trkpt lat="49.315145" lon="22.231680">
        <ele>549.723920</ele>
        <time>2026-05-27T07:44:45.799Z</time>
      </trkpt>
      <trkpt lat="49.314800" lon="22.231730">
        <ele>548.805536</ele>
        <time>2026-05-27T07:44:51.473Z</time>
      </trkpt>
      <trkpt lat="49.313620" lon="22.232177">
        <ele>545.584378</ele>
        <time>2026-05-27T07:45:12.465Z</time>
      </trkpt>
      <trkpt lat="49.313527" lon="22.232186">
        <ele>545.337421</ele>
        <time>2026-05-27T07:45:14.359Z</time>
      </trkpt>
      <trkpt lat="49.313245" lon="22.232184">
        <ele>545.509670</ele>
        <time>2026-05-27T07:45:20.452Z</time>
      </trkpt>
      <trkpt lat="49.313007" lon="22.232100">
        <ele>546.129430</ele>
        <time>2026-05-27T07:45:26.151Z</time>
      </trkpt>
      <trkpt lat="49.312414" lon="22.231774">
        <ele>547.728031</ele>
        <time>2026-05-27T07:45:41.828Z</time>
      </trkpt>
      <trkpt lat="49.312168" lon="22.231692">
        <ele>548.366882</ele>
        <time>2026-05-27T07:45:48.527Z</time>
      </trkpt>
      <trkpt lat="49.311675" lon="22.231763">
        <ele>549.623483</ele>
        <time>2026-05-27T07:46:01.883Z</time>
      </trkpt>
      <trkpt lat="49.311144" lon="22.231944">
        <ele>549.351518</ele>
        <time>2026-05-27T07:46:15.683Z</time>
      </trkpt>
      <trkpt lat="49.310647" lon="22.232231">
        <ele>549.085052</ele>
        <time>2026-05-27T07:46:27.825Z</time>
      </trkpt>
      <trkpt lat="49.310386" lon="22.232463">
        <ele>548.933689</ele>
        <time>2026-05-27T07:46:33.162Z</time>
      </trkpt>
      <trkpt lat="49.310270" lon="22.232607">
        <ele>548.858810</ele>
        <time>2026-05-27T07:46:35.592Z</time>
      </trkpt>
      <trkpt lat="49.310033" lon="22.233048">
        <ele>548.032200</ele>
        <time>2026-05-27T07:46:41.400Z</time>
      </trkpt>
      <trkpt lat="49.309707" lon="22.233768">
        <ele>544.072934</ele>
        <time>2026-05-27T07:46:49.913Z</time>
      </trkpt>
      <trkpt lat="49.309660" lon="22.233873">
        <ele>543.497672</ele>
        <time>2026-05-27T07:46:51.132Z</time>
      </trkpt>
      <trkpt lat="49.309057" lon="22.235201">
        <ele>536.212814</ele>
        <time>2026-05-27T07:47:06.719Z</time>
      </trkpt>
      <trkpt lat="49.308815" lon="22.235671">
        <ele>534.417663</ele>
        <time>2026-05-27T07:47:12.735Z</time>
      </trkpt>
      <trkpt lat="49.308478" lon="22.236064">
        <ele>532.471342</ele>
        <time>2026-05-27T07:47:19.460Z</time>
      </trkpt>
      <trkpt lat="49.307990" lon="22.236435">
        <ele>529.967294</ele>
        <time>2026-05-27T07:47:28.501Z</time>
      </trkpt>
      <trkpt lat="49.307604" lon="22.236711">
        <ele>528.009304</ele>
        <time>2026-05-27T07:47:35.765Z</time>
      </trkpt>
      <trkpt lat="49.307530" lon="22.236764">
        <ele>527.791230</ele>
        <time>2026-05-27T07:47:37.156Z</time>
      </trkpt>
      <trkpt lat="49.307135" lon="22.237033">
        <ele>526.677021</ele>
        <time>2026-05-27T07:47:44.720Z</time>
      </trkpt>
      <trkpt lat="49.307158" lon="22.237862">
        <ele>525.282285</ele>
        <time>2026-05-27T07:47:53.756Z</time>
      </trkpt>
      <trkpt lat="49.307091" lon="22.238710">
        <ele>523.846445</ele>
        <time>2026-05-27T07:48:03.012Z</time>
      </trkpt>
      <trkpt lat="49.307026" lon="22.239090">
        <ele>523.362449</ele>
        <time>2026-05-27T07:48:07.489Z</time>
      </trkpt>
      <trkpt lat="49.306925" lon="22.239684">
        <ele>523.406961</ele>
        <time>2026-05-27T07:48:15.377Z</time>
      </trkpt>
      <trkpt lat="49.306861" lon="22.240059">
        <ele>523.435069</ele>
        <time>2026-05-27T07:48:20.776Z</time>
      </trkpt>
      <trkpt lat="49.306801" lon="22.240317">
        <ele>523.454931</ele>
        <time>2026-05-27T07:48:24.686Z</time>
      </trkpt>
      <trkpt lat="49.306701" lon="22.240583">
        <ele>523.477196</ele>
        <time>2026-05-27T07:48:29.171Z</time>
      </trkpt>
      <trkpt lat="49.306543" lon="22.240863">
        <ele>523.504047</ele>
        <time>2026-05-27T07:48:34.644Z</time>
      </trkpt>
      <trkpt lat="49.306316" lon="22.241182">
        <ele>523.538287</ele>
        <time>2026-05-27T07:48:41.735Z</time>
      </trkpt>
      <trkpt lat="49.305474" lon="22.241970">
        <ele>523.015809</ele>
        <time>2026-05-27T07:49:03.516Z</time>
      </trkpt>
      <trkpt lat="49.305295" lon="22.242214">
        <ele>522.861005</ele>
        <time>2026-05-27T07:49:07.880Z</time>
      </trkpt>
      <trkpt lat="49.305239" lon="22.242350">
        <ele>522.793210</ele>
        <time>2026-05-27T07:49:09.780Z</time>
      </trkpt>
      <trkpt lat="49.305201" lon="22.242731">
        <ele>522.630759</ele>
        <time>2026-05-27T07:49:14.336Z</time>
      </trkpt>
      <trkpt lat="49.305263" lon="22.243063">
        <ele>522.485202</ele>
        <time>2026-05-27T07:49:18.374Z</time>
      </trkpt>
      <trkpt lat="49.305435" lon="22.243441">
        <ele>521.931571</ele>
        <time>2026-05-27T07:49:23.749Z</time>
      </trkpt>
      <trkpt lat="49.306025" lon="22.244665">
        <ele>519.020903</ele>
        <time>2026-05-27T07:49:40.305Z</time>
      </trkpt>
      <trkpt lat="49.306149" lon="22.244852">
        <ele>518.510895</ele>
        <time>2026-05-27T07:49:43.181Z</time>
      </trkpt>
      <trkpt lat="49.306353" lon="22.245099">
        <ele>517.748659</ele>
        <time>2026-05-27T07:49:47.427Z</time>
      </trkpt>
      <trkpt lat="49.306883" lon="22.245652">
        <ele>515.506216</ele>
        <time>2026-05-27T07:49:57.378Z</time>
      </trkpt>
      <trkpt lat="49.307604" lon="22.246189">
        <ele>512.473274</ele>
        <time>2026-05-27T07:50:09.718Z</time>
      </trkpt>
      <trkpt lat="49.307852" lon="22.246366">
        <ele>511.438213</ele>
        <time>2026-05-27T07:50:14.160Z</time>
      </trkpt>
      <trkpt lat="49.308630" lon="22.246931">
        <ele>508.801052</ele>
        <time>2026-05-27T07:50:28.624Z</time>
      </trkpt>
      <trkpt lat="49.309147" lon="22.247356">
        <ele>507.227474</ele>
        <time>2026-05-27T07:50:38.652Z</time>
      </trkpt>
      <trkpt lat="49.309303" lon="22.247485">
        <ele>506.752033</ele>
        <time>2026-05-27T07:50:41.647Z</time>
      </trkpt>
      <trkpt lat="49.309852" lon="22.247937">
        <ele>505.107998</ele>
        <time>2026-05-27T07:50:51.978Z</time>
      </trkpt>
      <trkpt lat="49.310077" lon="22.248192">
        <ele>504.408363</ele>
        <time>2026-05-27T07:50:56.616Z</time>
      </trkpt>
      <trkpt lat="49.311292" lon="22.250618">
        <ele>499.637613</ele>
        <time>2026-05-27T07:51:30.768Z</time>
      </trkpt>
      <trkpt lat="49.311434" lon="22.250874">
        <ele>499.165479</ele>
        <time>2026-05-27T07:51:34.664Z</time>
      </trkpt>
      <trkpt lat="49.311564" lon="22.251040">
        <ele>498.801033</ele>
        <time>2026-05-27T07:51:37.716Z</time>
      </trkpt>
      <trkpt lat="49.311716" lon="22.251153">
        <ele>498.437103</ele>
        <time>2026-05-27T07:51:40.868Z</time>
      </trkpt>
      <trkpt lat="49.311869" lon="22.251246">
        <ele>498.082516</ele>
        <time>2026-05-27T07:51:43.898Z</time>
      </trkpt>
      <trkpt lat="49.312226" lon="22.251442">
        <ele>497.265553</ele>
        <time>2026-05-27T07:51:50.717Z</time>
      </trkpt>
      <trkpt lat="49.312551" lon="22.251721">
        <ele>496.516371</ele>
        <time>2026-05-27T07:51:57.037Z</time>
      </trkpt>
      <trkpt lat="49.312854" lon="22.252142">
        <ele>495.707712</ele>
        <time>2026-05-27T07:52:04.365Z</time>
      </trkpt>
      <trkpt lat="49.313239" lon="22.252896">
        <ele>494.472690</ele>
        <time>2026-05-27T07:52:15.358Z</time>
      </trkpt>
      <trkpt lat="49.313529" lon="22.253557">
        <ele>493.492382</ele>
        <time>2026-05-27T07:52:24.278Z</time>
      </trkpt>
      <trkpt lat="49.314151" lon="22.254830">
        <ele>492.319492</ele>
        <time>2026-05-27T07:52:44.306Z</time>
      </trkpt>
      <trkpt lat="49.314383" lon="22.255158">
        <ele>491.962677</ele>
        <time>2026-05-27T07:52:50.365Z</time>
      </trkpt>
      <trkpt lat="49.314667" lon="22.255495">
        <ele>491.556614</ele>
        <time>2026-05-27T07:52:57.366Z</time>
      </trkpt>
      <trkpt lat="49.314776" lon="22.255685">
        <ele>491.414093</ele>
        <time>2026-05-27T07:53:00.662Z</time>
      </trkpt>
      <trkpt lat="49.315135" lon="22.256478">
        <ele>490.909906</ele>
        <time>2026-05-27T07:53:13.509Z</time>
      </trkpt>
      <trkpt lat="49.315590" lon="22.257583">
        <ele>490.227378</ele>
        <time>2026-05-27T07:53:30.219Z</time>
      </trkpt>
      <trkpt lat="49.315917" lon="22.258343">
        <ele>489.170490</ele>
        <time>2026-05-27T07:53:41.686Z</time>
      </trkpt>
      <trkpt lat="49.316606" lon="22.260627">
        <ele>485.182718</ele>
        <time>2026-05-27T07:54:09.394Z</time>
      </trkpt>
      <trkpt lat="49.316688" lon="22.260962">
        <ele>484.343583</ele>
        <time>2026-05-27T07:54:13.184Z</time>
      </trkpt>
      <trkpt lat="49.316729" lon="22.261271">
        <ele>483.604117</ele>
        <time>2026-05-27T07:54:16.516Z</time>
      </trkpt>
      <trkpt lat="49.316861" lon="22.263079">
        <ele>479.311985</ele>
        <time>2026-05-27T07:54:35.119Z</time>
      </trkpt>
      <trkpt lat="49.316880" lon="22.264410">
        <ele>475.902710</ele>
        <time>2026-05-27T07:54:48.714Z</time>
      </trkpt>
      <trkpt lat="49.316897" lon="22.265929">
        <ele>472.357611</ele>
        <time>2026-05-27T07:55:04.060Z</time>
      </trkpt>
      <trkpt lat="49.316836" lon="22.267499">
        <ele>470.902470</ele>
        <time>2026-05-27T07:55:22.201Z</time>
      </trkpt>
      <trkpt lat="49.316789" lon="22.269440">
        <ele>470.088496</ele>
        <time>2026-05-27T07:55:50.085Z</time>
      </trkpt>
      <trkpt lat="49.316781" lon="22.270784">
        <ele>470.211245</ele>
        <time>2026-05-27T07:56:09.285Z</time>
      </trkpt>
      <trkpt lat="49.316781" lon="22.271139">
        <ele>470.243666</ele>
        <time>2026-05-27T07:56:13.884Z</time>
      </trkpt>
      <trkpt lat="49.316783" lon="22.271528">
        <ele>470.006785</ele>
        <time>2026-05-27T07:56:18.738Z</time>
      </trkpt>
      <trkpt lat="49.316779" lon="22.273280">
        <ele>468.554326</ele>
        <time>2026-05-27T07:56:39.396Z</time>
      </trkpt>
      <trkpt lat="49.316757" lon="22.273654">
        <ele>468.243011</ele>
        <time>2026-05-27T07:56:43.823Z</time>
      </trkpt>
      <trkpt lat="49.316670" lon="22.273896">
        <ele>468.013900</ele>
        <time>2026-05-27T07:56:47.116Z</time>
      </trkpt>
      <trkpt lat="49.316590" lon="22.273978">
        <ele>467.936290</ele>
        <time>2026-05-27T07:56:48.939Z</time>
      </trkpt>
      <trkpt lat="49.316232" lon="22.274167">
        <ele>467.749169</ele>
        <time>2026-05-27T07:56:56.642Z</time>
      </trkpt>
      <trkpt lat="49.316104" lon="22.274275">
        <ele>467.676968</ele>
        <time>2026-05-27T07:56:59.724Z</time>
      </trkpt>
      <trkpt lat="49.315995" lon="22.274541">
        <ele>467.575742</ele>
        <time>2026-05-27T07:57:04.102Z</time>
      </trkpt>
      <trkpt lat="49.315951" lon="22.274758">
        <ele>467.502523</ele>
        <time>2026-05-27T07:57:07.312Z</time>
      </trkpt>
      <trkpt lat="49.315915" lon="22.274981">
        <ele>467.428506</ele>
        <time>2026-05-27T07:57:10.684Z</time>
      </trkpt>
      <trkpt lat="49.315907" lon="22.275161">
        <ele>467.370378</ele>
        <time>2026-05-27T07:57:13.305Z</time>
      </trkpt>
      <trkpt lat="49.316112" lon="22.275128">
        <ele>467.268503</ele>
        <time>2026-05-27T07:57:17.437Z</time>
      </trkpt>
      <trkpt lat="49.316293" lon="22.275055">
        <ele>467.176006</ele>
        <time>2026-05-27T07:57:20.986Z</time>
      </trkpt>
      <trkpt lat="49.316605" lon="22.274901">
        <ele>466.986711</ele>
        <time>2026-05-27T07:57:27.242Z</time>
      </trkpt>
      <trkpt lat="49.316831" lon="22.274829">
        <ele>466.822192</ele>
        <time>2026-05-27T07:57:31.757Z</time>
      </trkpt>
      <trkpt lat="49.317346" lon="22.274730">
        <ele>466.452253</ele>
        <time>2026-05-27T07:57:42.326Z</time>
      </trkpt>
      <trkpt lat="49.317510" lon="22.274753">
        <ele>466.334874</ele>
        <time>2026-05-27T07:57:45.570Z</time>
      </trkpt>
      <trkpt lat="49.317739" lon="22.274891">
        <ele>466.159512</ele>
        <time>2026-05-27T07:57:50.209Z</time>
      </trkpt>
      <trkpt lat="49.318278" lon="22.275361">
        <ele>465.682967</ele>
        <time>2026-05-27T07:58:02.501Z</time>
      </trkpt>
      <trkpt lat="49.318737" lon="22.275767">
        <ele>465.133586</ele>
        <time>2026-05-27T07:58:13.474Z</time>
      </trkpt>
      <trkpt lat="49.318928" lon="22.275937">
        <ele>464.904620</ele>
        <time>2026-05-27T07:58:17.837Z</time>
      </trkpt>
      <trkpt lat="49.319837" lon="22.276705">
        <ele>463.768085</ele>
        <time>2026-05-27T07:58:36.943Z</time>
      </trkpt>
      <trkpt lat="49.320918" lon="22.277203">
        <ele>461.890942</ele>
        <time>2026-05-27T07:58:57.591Z</time>
      </trkpt>
      <trkpt lat="49.321246" lon="22.277384">
        <ele>461.311222</ele>
        <time>2026-05-27T07:59:03.775Z</time>
      </trkpt>
      <trkpt lat="49.322257" lon="22.278053">
        <ele>459.517601</ele>
        <time>2026-05-27T07:59:23.133Z</time>
      </trkpt>
      <trkpt lat="49.322585" lon="22.278209">
        <ele>458.961193</ele>
        <time>2026-05-27T07:59:29.372Z</time>
      </trkpt>
      <trkpt lat="49.322637" lon="22.278226">
        <ele>458.875046</ele>
        <time>2026-05-27T07:59:30.345Z</time>
      </trkpt>
      <trkpt lat="49.323099" lon="22.278371">
        <ele>458.110967</ele>
        <time>2026-05-27T07:59:39.197Z</time>
      </trkpt>
      <trkpt lat="49.323301" lon="22.278443">
        <ele>457.898169</ele>
        <time>2026-05-27T07:59:43.203Z</time>
      </trkpt>
      <trkpt lat="49.323501" lon="22.278563">
        <ele>457.722994</ele>
        <time>2026-05-27T07:59:47.407Z</time>
      </trkpt>
      <trkpt lat="49.323735" lon="22.278827">
        <ele>457.486065</ele>
        <time>2026-05-27T07:59:53.058Z</time>
      </trkpt>
      <trkpt lat="49.324853" lon="22.280602">
        <ele>456.456474</ele>
        <time>2026-05-27T08:00:25.086Z</time>
      </trkpt>
      <trkpt lat="49.325109" lon="22.281010">
        <ele>456.378137</ele>
        <time>2026-05-27T08:00:32.893Z</time>
      </trkpt>
      <trkpt lat="49.325361" lon="22.281408">
        <ele>456.301384</ele>
        <time>2026-05-27T08:00:40.604Z</time>
      </trkpt>
      <trkpt lat="49.325574" lon="22.281736">
        <ele>456.237339</ele>
        <time>2026-05-27T08:00:47.096Z</time>
      </trkpt>
      <trkpt lat="49.325712" lon="22.281952">
        <ele>456.195501</ele>
        <time>2026-05-27T08:00:51.257Z</time>
      </trkpt>
      <trkpt lat="49.326375" lon="22.282979">
        <ele>455.352075</ele>
        <time>2026-05-27T08:01:10.294Z</time>
      </trkpt>
      <trkpt lat="49.326523" lon="22.283209">
        <ele>455.146327</ele>
        <time>2026-05-27T08:01:14.188Z</time>
      </trkpt>
      <trkpt lat="49.326978" lon="22.283897">
        <ele>454.522384</ele>
        <time>2026-05-27T08:01:25.728Z</time>
      </trkpt>
      <trkpt lat="49.327097" lon="22.284040">
        <ele>454.368049</ele>
        <time>2026-05-27T08:01:28.418Z</time>
      </trkpt>
      <trkpt lat="49.327239" lon="22.284163">
        <ele>454.183770</ele>
        <time>2026-05-27T08:01:31.376Z</time>
      </trkpt>
      <trkpt lat="49.327435" lon="22.284256">
        <ele>453.951922</ele>
        <time>2026-05-27T08:01:35.275Z</time>
      </trkpt>
      <trkpt lat="49.327904" lon="22.284436">
        <ele>453.405579</ele>
        <time>2026-05-27T08:01:44.869Z</time>
      </trkpt>
      <trkpt lat="49.328407" lon="22.284631">
        <ele>452.819278</ele>
        <time>2026-05-27T08:01:54.922Z</time>
      </trkpt>
      <trkpt lat="49.328646" lon="22.284723">
        <ele>452.540816</ele>
        <time>2026-05-27T08:01:59.558Z</time>
      </trkpt>
      <trkpt lat="49.328681" lon="22.284736">
        <ele>452.500120</ele>
        <time>2026-05-27T08:02:00.257Z</time>
      </trkpt>
      <trkpt lat="49.329217" lon="22.284943">
        <ele>451.667352</ele>
        <time>2026-05-27T08:02:10.876Z</time>
      </trkpt>
      <trkpt lat="49.329251" lon="22.284956">
        <ele>451.611571</ele>
        <time>2026-05-27T08:02:11.541Z</time>
      </trkpt>
      <trkpt lat="49.329404" lon="22.285014">
        <ele>451.360678</ele>
        <time>2026-05-27T08:02:14.422Z</time>
      </trkpt>
      <trkpt lat="49.329418" lon="22.285020">
        <ele>451.337537</ele>
        <time>2026-05-27T08:02:14.697Z</time>
      </trkpt>
      <trkpt lat="49.329625" lon="22.285100">
        <ele>450.997710</ele>
        <time>2026-05-27T08:02:18.472Z</time>
      </trkpt>
      <trkpt lat="49.330285" lon="22.285355">
        <ele>449.914220</ele>
        <time>2026-05-27T08:02:30.366Z</time>
      </trkpt>
      <trkpt lat="49.330794" lon="22.285553">
        <ele>449.146297</ele>
        <time>2026-05-27T08:02:40.020Z</time>
      </trkpt>
      <trkpt lat="49.331276" lon="22.285743">
        <ele>448.475658</ele>
        <time>2026-05-27T08:02:49.462Z</time>
      </trkpt>
      <trkpt lat="49.331933" lon="22.286002">
        <ele>447.561526</ele>
        <time>2026-05-27T08:03:02.467Z</time>
      </trkpt>
      <trkpt lat="49.333038" lon="22.286437">
        <ele>446.150641</ele>
        <time>2026-05-27T08:03:23.455Z</time>
      </trkpt>
      <trkpt lat="49.333350" lon="22.286559">
        <ele>445.767866</ele>
        <time>2026-05-27T08:03:29.493Z</time>
      </trkpt>
      <trkpt lat="49.334598" lon="22.287051">
        <ele>444.905138</ele>
        <time>2026-05-27T08:03:54.638Z</time>
      </trkpt>
      <trkpt lat="49.335256" lon="22.287279">
        <ele>444.845168</ele>
        <time>2026-05-27T08:04:09.413Z</time>
      </trkpt>
      <trkpt lat="49.335492" lon="22.287228">
        <ele>444.823980</ele>
        <time>2026-05-27T08:04:14.618Z</time>
      </trkpt>
      <trkpt lat="49.336171" lon="22.286870">
        <ele>444.799318</ele>
        <time>2026-05-27T08:04:29.870Z</time>
      </trkpt>
      <trkpt lat="49.336225" lon="22.286852">
        <ele>444.799318</ele>
        <time>2026-05-27T08:04:31.068Z</time>
      </trkpt>
      <trkpt lat="49.336231" lon="22.286935">
        <ele>444.799318</ele>
        <time>2026-05-27T08:04:32.286Z</time>
      </trkpt>
      <trkpt lat="49.336254" lon="22.287500">
        <ele>444.799318</ele>
        <time>2026-05-27T08:04:40.447Z</time>
      </trkpt>
      <trkpt lat="49.336252" lon="22.287513">
        <ele>444.799318</ele>
        <time>2026-05-27T08:04:40.635Z</time>
      </trkpt>
    </trkseg>
  </trk>
</gpx>